1 45088U 20006AW  22365.57657456  .00010947  00000-0  75198-3 0  9990
2 45088  53.0538  72.5153 0001988  45.3657 314.7494 15.06433842161567
1 45088U 20006AW  23001.57178228 -.00006019  00000-0 -38560-3 0  9992
2 45088  53.0552  68.0461 0001843  41.1846 318.9282 15.06389870161718
1 45088U 20006AW  23001.90351835 -.00001540  00000-0 -84481-4 0  9994
2 45088  53.0560  66.5569 0001809  41.5174 318.5952 15.06394535161768
1 45088U 20006AW  23002.43429248  .00011247  00000-0  77261-3 0  9997
2 45088  53.0555  64.1735 0001860  42.8578 317.2556 15.06407281161848
1 45088U 20006AW  23002.89871619  .00012518  00000-0  85734-3 0  9996
2 45088  53.0550  62.0907 0002124  37.7548 322.3590 15.06417977161911
1 45088U 20006AW  23003.56219436  .00002897  00000-0  21334-3 0  9999
2 45088  53.0538  59.1128 0002220  38.9874 321.1275 15.06395858162013
1 45088U 20006AW  23004.42469967  .00001975  00000-0  15147-3 0  9992
2 45088  53.0547  55.2408 0002246  37.2823 322.8322 15.06403718162145
1 45088U 20006AW  23004.82277254  .00003576  00000-0  25875-3 0  9990
2 45088  53.0548  53.4536 0002269  37.4779 322.6368 15.06415740162208
1 45088U 20006AW  23005.55258593  .00003421  00000-0  24836-3 0  9991
2 45088  53.0542  50.1770 0002338  35.4880 324.6264 15.06412818162316
1 45088U 20006AW  23005.81797158  .00001627  00000-0  12807-3 0  9996
2 45088  53.0546  48.9866 0002296  39.1438 320.9717 15.06410187162357
1 45088U 20006AW  23006.87953913 -.00004716  00000-0 -29802-3 0  9993
2 45088  53.0551  44.2222 0002369  36.9193 323.1959 15.06380000162513
1 45088U 20006AW  23007.21127605 -.00000483  00000-0 -13502-4 0  9991
2 45088  53.0549  42.7324 0002366  36.4344 323.6806 15.06385430162569
1 45088U 20006AW  23007.87475163  .00012034  00000-0  82552-3 0  9991
2 45088  53.0542  39.7532 0002370  36.2475 323.8675 15.06395265162661
1 45088U 20006AW  23008.47187341  .00009347  00000-0  64549-3 0  9995
2 45088  53.0541  37.0725 0002427  37.3713 322.7444 15.06403491162758
1 45088U 20006AW  23008.80360846  .00006328  00000-0  44335-3 0  9992
2 45088  53.0541  35.5832 0002466  37.8052 322.3110 15.06400929162809
1 45088U 20006AW  23009.40073042  .00004186  00000-0  29974-3 0  9990
2 45088  53.0540  32.9024 0002372  43.7783 316.3394 15.06401855162890
1 45088U 20006AW  23010.46228158  .00002898  00000-0  21338-3 0  9992
2 45088  53.0548  28.1367 0002336  45.8946 314.2235 15.06401549163059
1 45088U 20006AW  23010.72767053  .00000849  00000-0  75918-4 0  9991
2 45088  53.0549  26.9458 0002258  43.9002 316.2166 15.06397090163096
1 45088U 20006AW  23011.32479029  .00002737  00000-0  20256-3 0  9993
2 45088  53.0552  24.2659 0002321  47.7985 312.3201 15.06405270163184
1 45088U 20006AW  23011.85556978  .00000495  00000-0  52125-4 0  9990
2 45088  53.0547  21.8823 0002189  56.4963 303.6234 15.06394168163260
1 45088U 20006AW  23012.91712391  .00001174  00000-0  97761-4 0  9991
2 45088  53.0552  17.1182 0002138  58.3840 301.7357 15.06391963163424
1 45088U 20006AW  23013.31520108  .00001485  00000-0  11861-3 0  9990
2 45088  53.0554  15.3316 0002169  58.1696 301.9504 15.06400910163481
1 45088U 20006AW  23013.71328144  .00000933  00000-0  81558-4 0  9998
2 45088  53.0555  13.5439 0002007  66.9761 293.1439 15.06401245163547
1 45088U 20006AW  23015.37194837  .00005786  00000-0  40688-3 0  9991
2 45088  53.0556   6.0933 0002158  93.0601 267.0635 15.06413358163798
1 45088U 20006AW  23015.77003322  .00003546  00000-0  25680-3 0  9990
2 45088  53.0532   4.3112 0002361  76.7999 283.3253 15.06404321163850
1 45088U 20006AW  23016.23445218  .00013278  00000-0  90798-3 0  9991
2 45088  53.0549   2.2246 0001924  91.1949 268.9260 15.06425878163928
1 45088U 20006AW  23017.36236751  .00000628  00000-0  61098-4 0  9993
2 45088  53.0563 357.1605 0001925  74.1968 285.9233 15.06375670164090
1 45088U 20006AW  23017.89314734  .00020788  00000-0  14105-2 0  9993
2 45088  53.0554 354.7793 0001940  77.2939 282.8267 15.06395852164176
1 45088U 20006AW  23018.29122265  .00036289  00000-0  24404-2 0  9990
2 45088  53.0556 352.9924 0001948  80.1454 279.9755 15.06432759164231
1 45088U 20006AW  23018.62295538  .00019668  00000-0  13347-2 0  9997
2 45088  53.0559 351.5022 0002304  80.1765 279.9485 15.06424014164280
1 45088U 20006AW  23019.35275942  .00008907  00000-0  61568-3 0  9998
2 45088  53.0550 348.2256 0002301  80.4691 279.6558 15.06426934164394
1 45088U 20006AW  23025.52303034  .00002875  00000-0  21174-3 0  9995
2 45088  53.0555 320.5291 0001291  90.3471 269.7666 15.06411261165325
1 45088U 20006AW  23026.12015024  .00003720  00000-0  26846-3 0  9992
2 45088  53.0562 317.8499 0001377  91.7701 268.3446 15.06409202165411
1 45088U 20006AW  23027.18170453  .00001503  00000-0  11978-3 0  9994
2 45088  53.0550 313.0823 0001353  88.1520 271.9624 15.06401098165570
1 45088U 20006AW  23028.17690572  .00002708  00000-0  20062-3 0  9995
2 45088  53.0551 308.6131 0001257  95.9335 264.1797 15.06402731165723
1 45088U 20006AW  23028.90672773  .00000963  00000-0  83558-4 0  9990
2 45088  53.0550 305.3381 0001287  88.9017 271.2119 15.06396173165836
1 45088U 20006AW  23029.76923845  .00002732  00000-0  20226-3 0  9992
2 45088  53.0545 301.4666 0001260  86.0893 274.0240 15.06394571165965
1 45088U 20006AW  23030.16733009  .00015313  00000-0  10453-2 0  9998
2 45088  53.0550 299.6795 0001484  92.5033 267.6126 15.06378676166025
1 45088U 20006AW  23030.89713208  .00000093  00000-0  25105-4 0  9998
2 45088  53.0548 296.4032 0001220  82.6555 277.4573 15.06397494166134
1 45088U 20006AW  23031.16251703  .00001710  00000-0  13368-3 0  9990
2 45088  53.0548 295.2122 0001233  82.4643 277.6486 15.06403416166172
1 45088U 20006AW  23031.75964070 -.00000079  00000-0  13563-4 0  9999
2 45088  53.0548 292.5314 0001154  86.5100 273.6021 15.06398396166261
